{
    "links": {
        "self": "http://www.neowsapp.com/rest/v1/neo/3134280?api_key=iIulBulltgU6a56xZRHN4H3l9WmuAYTsLGpBGhQ2"
    },
    "id": "3134280",
    "neo_reference_id": "3134280",
    "name": "(2002 RA126)",
    "designation": "2002 RA126",
    "nasa_jpl_url": "http://ssd.jpl.nasa.gov/sbdb.cgi?sstr=3134280",
    "absolute_magnitude_h": 22.8,
    "estimated_diameter": {
        "kilometers": {
            "estimated_diameter_min": 0.0732073989,
            "estimated_diameter_max": 0.1636967205
        },
        "meters": {
            "estimated_diameter_min": 73.2073989347,
            "estimated_diameter_max": 163.696720474
        },
        "miles": {
            "estimated_diameter_min": 0.0454889547,
            "estimated_diameter_max": 0.1017163949
        },
        "feet": {
            "estimated_diameter_min": 240.181762721,
            "estimated_diameter_max": 537.0627483999
        }
    },
    "is_potentially_hazardous_asteroid": false,
    "close_approach_data": [
        {
            "close_approach_date": "2002-08-28",
            "close_approach_date_full": "2002-Aug-28 01:33",
            "epoch_date_close_approach": 1030498380000,
            "relative_velocity": {
                "kilometers_per_second": "10.1172866567",
                "kilometers_per_hour": "36422.2319640847",
                "miles_per_hour": "22631.3585223503"
            },
            "miss_distance": {
                "astronomical": "0.099949722",
                "lunar": "38.880441858",
                "kilometers": "14952265.51829214",
                "miles": "9290906.967985932"
            },
            "orbiting_body": "Earth"
        }
    ],
    "orbital_data": {
        "orbit_id": "12",
        "orbit_determination_date": "2017-04-06 09:14:51",
        "first_observation_date": "2002-09-11",
        "last_observation_date": "2002-09-28",
        "data_arc_in_days": 17,
        "observations_used": 28,
        "orbit_uncertainty": "9",
        "minimum_orbit_intersection": ".0605658",
        "jupiter_tisserand_invariant": "3.072",
        "epoch_osculation": "2452531.5",
        "eccentricity": ".613234047011065",
        "semi_major_axis": "2.68350729399192",
        "inclination": "3.146371742738433",
        "ascending_node_longitude": "213.8622222597172",
        "orbital_period": "1605.656334489639",
        "perihelion_distance": "1.037889255913543",
        "perihelion_argument": "94.84340889084632",
        "aphelion_distance": "4.329125332070297",
        "perihelion_time": "2452495.345998142620",
        "mean_anomaly": "8.10599403439204",
        "mean_motion": ".2242073800396563",
        "equinox": "J2000",
        "orbit_class": {
            "orbit_class_type": "AMO",
            "orbit_class_description": "Near-Earth asteroid orbits similar to that of 1221 Amor",
            "orbit_class_range": "1.017 AU < q (perihelion) < 1.3 AU"
        }
    },
    "is_sentry_object": false
}